{
  "type": "FeatureCollection",
  "features": [
    {
      "type": "Feature",
      "properties": {
        "id": 65,
        "departamento": "JOSE C PAZ",
        "cabecera": "JOSE C. PAZ",
        "provincia": "BUENOS AIRES"
      },
      "geometry": {
        "coordinates": [
          [
            [
              -58.82181167599998,
              -34.45191574099999
            ],
            [
              -58.821430206,
              -34.45206451400003
            ],
            [
              -58.816967009999985,
              -34.455863953000005
            ],
            [
              -58.815185547,
              -34.456466675
            ],
            [
              -58.80851364099999,
              -34.46124267599998
            ],
            [
              -58.80515289300001,
              -34.464122771999996
            ],
            [
              -58.803863525,
              -34.464607238999974
            ],
            [
              -58.803455353000004,
              -34.46483612100002
            ],
            [
              -58.79169464099999,
              -34.47278595
            ],
            [
              -58.78473663300002,
              -34.476135253999985
            ],
            [
              -58.784122466999975,
              -34.476535797
            ],
            [
              -58.78336334199997,
              -34.47705841099997
            ],
            [
              -58.77740478499999,
              -34.482418059999986
            ],
            [
              -58.77335739099999,
              -34.486820221000016
            ],
            [
              -58.771369934000006,
              -34.488754271999994
            ],
            [
              -58.76647567700002,
              -34.491561890000014
            ],
            [
              -58.76081466699998,
              -34.495094299000016
            ],
            [
              -58.74808883700001,
              -34.50080490099998
            ],
            [
              -58.74311447100001,
              -34.502872466999975
            ],
            [
              -58.73528289799998,
              -34.506027222
            ],
            [
              -58.729316711000024,
              -34.50814819300001
            ],
            [
              -58.72564697299998,
              -34.513237000000004
            ],
            [
              -58.723857880000025,
              -34.51555252100002
            ],
            [
              -58.720973969,
              -34.5182724
            ],
            [
              -58.72250366200001,
              -34.519351959000005
            ],
            [
              -58.72436141999998,
              -34.521202087000006
            ],
            [
              -58.724159240999995,
              -34.52137756299999
            ],
            [
              -58.728797912999994,
              -34.52577209499998
            ],
            [
              -58.72863388100001,
              -34.52593231200001
            ],
            [
              -58.73349761999998,
              -34.53053665200002
            ],
            [
              -58.75323104900002,
              -34.548854828
            ],
            [
              -58.753803253,
              -34.54844665500002
            ],
            [
              -58.756351471000016,
              -34.55086135900001
            ],
            [
              -58.761482238999974,
              -34.54712676999998
            ],
            [
              -58.76613616899999,
              -34.551422118999994
            ],
            [
              -58.768138884999985,
              -34.54995346099997
            ],
            [
              -58.7759552,
              -34.55712509199998
            ],
            [
              -58.78027725200002,
              -34.55281448400001
            ],
            [
              -58.794677734000004,
              -34.53788757299998
            ],
            [
              -58.82249450699999,
              -34.50944900500002
            ],
            [
              -58.82381820699999,
              -34.508182525999985
            ],
            [
              -58.82354354900002,
              -34.50800705
            ],
            [
              -58.82337188700001,
              -34.50789260900001
            ],
            [
              -58.82329559300001,
              -34.50770568799999
            ],
            [
              -58.82319259600001,
              -34.50752639799998
            ],
            [
              -58.822948456000006,
              -34.50724410999999
            ],
            [
              -58.82284545900001,
              -34.50692749000001
            ],
            [
              -58.82263946500001,
              -34.506771087999994
            ],
            [
              -58.822547912999994,
              -34.506557465000014
            ],
            [
              -58.822395325,
              -34.50632858300003
            ],
            [
              -58.82206726099997,
              -34.50627517700002
            ],
            [
              -58.82197189300001,
              -34.50606918300002
            ],
            [
              -58.82189941399997,
              -34.50584411599999
            ],
            [
              -58.82161331200001,
              -34.50549316399997
            ],
            [
              -58.82145309399999,
              -34.505367278999984
            ],
            [
              -58.82134246800001,
              -34.50515747100002
            ],
            [
              -58.82124710099998,
              -34.504825591999975
            ],
            [
              -58.821109772,
              -34.50467300399998
            ],
            [
              -58.820903778,
              -34.50460815399998
            ],
            [
              -58.820697784000004,
              -34.50448226899999
            ],
            [
              -58.82055282599998,
              -34.50414657599998
            ],
            [
              -58.82043075600001,
              -34.50393676800002
            ],
            [
              -58.8203125,
              -34.503765106
            ],
            [
              -58.820198059000006,
              -34.50358581500001
            ],
            [
              -58.82000732400002,
              -34.503250122
            ],
            [
              -58.81993484499998,
              -34.50304794300001
            ],
            [
              -58.819862365999995,
              -34.50267791700003
            ],
            [
              -58.81979370099998,
              -34.502468109000006
            ],
            [
              -58.81962585399998,
              -34.50233459499998
            ],
            [
              -58.819278716999975,
              -34.502075194999975
            ],
            [
              -58.819152831999986,
              -34.50167846699998
            ],
            [
              -58.81910324099999,
              -34.50134658799999
            ],
            [
              -58.81904983499999,
              -34.501087188999975
            ],
            [
              -58.81895828199998,
              -34.50046539300001
            ],
            [
              -58.81891632100002,
              -34.500179290999995
            ],
            [
              -58.81882476800001,
              -34.499961853
            ],
            [
              -58.81879043599997,
              -34.49972152700002
            ],
            [
              -58.81877899199998,
              -34.49951553300002
            ],
            [
              -58.818874359000006,
              -34.498943328999985
            ],
            [
              -58.818977356000005,
              -34.49866867100002
            ],
            [
              -58.81909561200001,
              -34.498306274000015
            ],
            [
              -58.819168090999995,
              -34.49798584000001
            ],
            [
              -58.819290161000026,
              -34.49773025500002
            ],
            [
              -58.819416046000015,
              -34.49710464499998
            ],
            [
              -58.81940460200002,
              -34.49686813400001
            ],
            [
              -58.819583893000015,
              -34.49669265699998
            ],
            [
              -58.81967544600002,
              -34.49647140500002
            ],
            [
              -58.81955719000001,
              -34.49625778199999
            ],
            [
              -58.81937789900002,
              -34.496128081999984
            ],
            [
              -58.81922912599998,
              -34.49596786500001
            ],
            [
              -58.819000243999994,
              -34.49580764799998
            ],
            [
              -58.81876754799998,
              -34.49568557700002
            ],
            [
              -58.81843948400001,
              -34.495468140000014
            ],
            [
              -58.81821060200002,
              -34.495330810999974
            ],
            [
              -58.817955016999974,
              -34.495140075999984
            ],
            [
              -58.81734848000002,
              -34.49484252899998
            ],
            [
              -58.817134856999985,
              -34.494743346999996
            ],
            [
              -58.816921234000006,
              -34.49462509199998
            ],
            [
              -58.81671905500002,
              -34.49444961500001
            ],
            [
              -58.81653976400003,
              -34.49427413900003
            ],
            [
              -58.816291809000006,
              -34.49414825399998
            ],
            [
              -58.81603240999999,
              -34.494136809999986
            ],
            [
              -58.81583785999999,
              -34.49404525800003
            ],
            [
              -58.815845490000015,
              -34.49379730200002
            ],
            [
              -58.815891265999994,
              -34.49358367899998
            ],
            [
              -58.815814972,
              -34.493354796999995
            ],
            [
              -58.81571579000001,
              -34.49316787700002
            ],
            [
              -58.81556701699998,
              -34.49296951299999
            ],
            [
              -58.81536865200002,
              -34.49290466299999
            ],
            [
              -58.81517028799999,
              -34.492984772
            ],
            [
              -58.81493377700002,
              -34.49301528900003
            ],
            [
              -58.81470870999999,
              -34.492813109999986
            ],
            [
              -58.814487456999984,
              -34.49258422899999
            ],
            [
              -58.81437301599999,
              -34.492084503
            ],
            [
              -58.814208984000004,
              -34.49185562100001
            ],
            [
              -58.81400680500002,
              -34.491657256999986
            ],
            [
              -58.81385421800002,
              -34.49151229900002
            ],
            [
              -58.813617706,
              -34.49126434300001
            ],
            [
              -58.813514709,
              -34.490985869999975
            ],
            [
              -58.81354904199998,
              -34.490764618000014
            ],
            [
              -58.81348037700002,
              -34.490245818999995
            ],
            [
              -58.81339263900003,
              -34.490047455000024
            ],
            [
              -58.81324768100001,
              -34.48973083499999
            ],
            [
              -58.81321334799998,
              -34.48952484099999
            ],
            [
              -58.81313705399998,
              -34.489257812999995
            ],
            [
              -58.81297683700001,
              -34.48899841299999
            ],
            [
              -58.812576293999996,
              -34.488460540999995
            ],
            [
              -58.812511443999995,
              -34.488243103
            ],
            [
              -58.812480927000024,
              -34.48804092400002
            ],
            [
              -58.81238174399999,
              -34.487789153999984
            ],
            [
              -58.81225204499998,
              -34.48757934600002
            ],
            [
              -58.812129974000015,
              -34.48737716699998
            ],
            [
              -58.812114715999996,
              -34.487159728999984
            ],
            [
              -58.81208038300002,
              -34.4868927
            ],
            [
              -58.811969756999986,
              -34.48667144799998
            ],
            [
              -58.81181335399998,
              -34.486457825
            ],
            [
              -58.811588287000006,
              -34.486251831000004
            ],
            [
              -58.81135940600001,
              -34.486133575
            ],
            [
              -58.81113052400002,
              -34.48600006100003
            ],
            [
              -58.811141968000015,
              -34.485733031999985
            ],
            [
              -58.811382294,
              -34.48545837400002
            ],
            [
              -58.81152725200002,
              -34.485305786000026
            ],
            [
              -58.81166076699998,
              -34.48511123700001
            ],
            [
              -58.81173324600002,
              -34.484897613999976
            ],
            [
              -58.81164169300001,
              -34.48467254600001
            ],
            [
              -58.81156539900002,
              -34.48445510900001
            ],
            [
              -58.81158447299998,
              -34.48419952400002
            ],
            [
              -58.811801909999986,
              -34.48412704499998
            ],
            [
              -58.81212615999999,
              -34.483989715999996
            ],
            [
              -58.81229019199998,
              -34.48373794600002
            ],
            [
              -58.81240463300003,
              -34.483375549000016
            ],
            [
              -58.812423706000004,
              -34.48313903799999
            ],
            [
              -58.812446593999994,
              -34.482929230000025
            ],
            [
              -58.81245422400002,
              -34.482524872
            ],
            [
              -58.81246948199998,
              -34.482250213999976
            ],
            [
              -58.81238174399999,
              -34.481994628999985
            ],
            [
              -58.81220245399999,
              -34.481781006000006
            ],
            [
              -58.81201934799998,
              -34.48141479499998
            ],
            [
              -58.81204605099998,
              -34.481086731000005
            ],
            [
              -58.81209182700002,
              -34.48081207299998
            ],
            [
              -58.812095641999974,
              -34.480583190999994
            ],
            [
              -58.81208038300002,
              -34.480312346999995
            ],
            [
              -58.81208038300002,
              -34.479995728000006
            ],
            [
              -58.81205368000002,
              -34.479770659999986
            ],
            [
              -58.812137603999986,
              -34.479469299000016
            ],
            [
              -58.81224441500001,
              -34.47922515900001
            ],
            [
              -58.81229019199998,
              -34.47888946500001
            ],
            [
              -58.81235122700002,
              -34.47863388100001
            ],
            [
              -58.81225967400002,
              -34.478321075
            ],
            [
              -58.81216812100001,
              -34.47804641699997
            ],
            [
              -58.812210083000025,
              -34.47780227700002
            ],
            [
              -58.81234741200001,
              -34.477653503
            ],
            [
              -58.812473297,
              -34.47747039799998
            ],
            [
              -58.812511443999995,
              -34.47714614900002
            ],
            [
              -58.8126297,
              -34.47688293499999
            ],
            [
              -58.81269073499999,
              -34.476551056000005
            ],
            [
              -58.812656403000005,
              -34.47624969499998
            ],
            [
              -58.812725066999974,
              -34.47605133100001
            ],
            [
              -58.81278610200002,
              -34.475803375
            ],
            [
              -58.813030243000014,
              -34.475444794
            ],
            [
              -58.81315231299999,
              -34.47518539399999
            ],
            [
              -58.813140868999994,
              -34.474796294999976
            ],
            [
              -58.81309890699998,
              -34.474555968999994
            ],
            [
              -58.81317901599999,
              -34.47431564300001
            ],
            [
              -58.813354491999974,
              -34.474182128999985
            ],
            [
              -58.813591003,
              -34.47417068499999
            ],
            [
              -58.81376647899998,
              -34.474006653000004
            ],
            [
              -58.81374359099999,
              -34.47369384799998
            ],
            [
              -58.81360244799998,
              -34.47349548300002
            ],
            [
              -58.81359481800001,
              -34.47324371299999
            ],
            [
              -58.813690185999974,
              -34.473049163999974
            ],
            [
              -58.814025878999985,
              -34.47254562400002
            ],
            [
              -58.81397628799999,
              -34.47230529799998
            ],
            [
              -58.814067840999996,
              -34.47198486299999
            ],
            [
              -58.81415939300001,
              -34.47177886999998
            ],
            [
              -58.814258575,
              -34.47146225
            ],
            [
              -58.814487456999984,
              -34.47136306800002
            ],
            [
              -58.81475067100001,
              -34.47125244099999
            ],
            [
              -58.814910888999975,
              -34.47096633899997
            ],
            [
              -58.814926146999994,
              -34.470664978
            ],
            [
              -58.814887999999996,
              -34.470432281
            ],
            [
              -58.81467437700002,
              -34.469944
            ],
            [
              -58.81465148900003,
              -34.46953964199997
            ],
            [
              -58.81467056299999,
              -34.46926116899999
            ],
            [
              -58.81458663900003,
              -34.46865463300003
            ],
            [
              -58.814521790000015,
              -34.468425750999984
            ],
            [
              -58.81436920200002,
              -34.46810150099998
            ],
            [
              -58.814266205000024,
              -34.467708587999994
            ],
            [
              -58.814182281,
              -34.46746826200001
            ],
            [
              -58.814105987999994,
              -34.467136383000025
            ],
            [
              -58.81397628799999,
              -34.466888428000004
            ],
            [
              -58.814029694,
              -34.46669006299999
            ],
            [
              -58.81437301599999,
              -34.46637725800002
            ],
            [
              -58.81434249900002,
              -34.466171265000014
            ],
            [
              -58.814170837000006,
              -34.46592712400002
            ],
            [
              -58.81415557899999,
              -34.46570205699999
            ],
            [
              -58.81422424300001,
              -34.46538925200002
            ],
            [
              -58.81415557899999,
              -34.465198516999976
            ],
            [
              -58.81391143799999,
              -34.464965819999975
            ],
            [
              -58.813796997,
              -34.46469879199998
            ],
            [
              -58.81377410900001,
              -34.46430206299999
            ],
            [
              -58.813899993999996,
              -34.46397399900002
            ],
            [
              -58.81412124600001,
              -34.463623047
            ],
            [
              -58.814296721999995,
              -34.46334457400002
            ],
            [
              -58.81448364300002,
              -34.463096619
            ],
            [
              -58.814720153999986,
              -34.462696075
            ],
            [
              -58.81486892700002,
              -34.46255493199999
            ],
            [
              -58.814990996999995,
              -34.462272643999995
            ],
            [
              -58.81520080600001,
              -34.462024688999975
            ],
            [
              -58.815444946000014,
              -34.46178817700002
            ],
            [
              -58.815605163999976,
              -34.46165466299999
            ],
            [
              -58.81583785999999,
              -34.461261749000016
            ],
            [
              -58.81592559799998,
              -34.460765838999976
            ],
            [
              -58.816001891999974,
              -34.460430144999975
            ],
            [
              -58.816238403,
              -34.46017074600002
            ],
            [
              -58.816432953,
              -34.46007919300001
            ],
            [
              -58.81665801999998,
              -34.45988845800002
            ],
            [
              -58.81680679300001,
              -34.45962905900001
            ],
            [
              -58.816967009999985,
              -34.45942306500001
            ],
            [
              -58.81715393100001,
              -34.459243774000015
            ],
            [
              -58.817375183000024,
              -34.459087372
            ],
            [
              -58.81757736200001,
              -34.45901489300002
            ],
            [
              -58.81784820600001,
              -34.458881378
            ],
            [
              -58.818187713999976,
              -34.458717346000014
            ],
            [
              -58.81855773900003,
              -34.45848083499999
            ],
            [
              -58.818744659000004,
              -34.45833969099999
            ],
            [
              -58.81899642899998,
              -34.458045959
            ],
            [
              -58.81911468499999,
              -34.457862853999984
            ],
            [
              -58.81912612899998,
              -34.457622528
            ],
            [
              -58.819313049000016,
              -34.45740890500002
            ],
            [
              -58.81954574600002,
              -34.457218169999976
            ],
            [
              -58.819740294999974,
              -34.45703887899998
            ],
            [
              -58.82000350999999,
              -34.45677948000002
            ],
            [
              -58.820346831999984,
              -34.45651245099998
            ],
            [
              -58.82055282599998,
              -34.45635986299999
            ],
            [
              -58.82074356099997,
              -34.45621109000001
            ],
            [
              -58.82096099900002,
              -34.45598602299998
            ],
            [
              -58.82116317700002,
              -34.45576858499999
            ],
            [
              -58.821289062999995,
              -34.455604553
            ],
            [
              -58.821449280000024,
              -34.45539474499998
            ],
            [
              -58.82158660900001,
              -34.455192565999994
            ],
            [
              -58.821662903000004,
              -34.45491790800003
            ],
            [
              -58.82165908799999,
              -34.45461273199999
            ],
            [
              -58.821640015000014,
              -34.45425796500001
            ],
            [
              -58.821662903000004,
              -34.45403289799998
            ],
            [
              -58.82166671800002,
              -34.453395844
            ],
            [
              -58.821655272999976,
              -34.45301818799999
            ],
            [
              -58.82162857100002,
              -34.45277404799998
            ],
            [
              -58.821624756000006,
              -34.45244598400001
            ],
            [
              -58.821773528999984,
              -34.452194213999974
            ],
            [
              -58.82181167599998,
              -34.45191574099999
            ]
          ]
        ],
        "type": "Polygon"
      }
    }
  ]
}