{
  "type": "FeatureCollection",
  "features": [
    {
      "type": "Feature",
      "properties": {
        "id": 64,
        "departamento": "MALVINAS ARGENTINAS",
        "cabecera": "LOS POLVORINES",
        "provincia": "BUENOS AIRES"
      },
      "geometry": {
        "coordinates": [
          [
            [
              -58.71453094499998,
              -34.444290161000026
            ],
            [
              -58.70557785,
              -34.439331055000025
            ],
            [
              -58.67814636200001,
              -34.47457885699998
            ],
            [
              -58.64590072599998,
              -34.501941681000005
            ],
            [
              -58.64771270799997,
              -34.50236892700002
            ],
            [
              -58.67098236099997,
              -34.518035888999975
            ],
            [
              -58.685455321999996,
              -34.52765655500002
            ],
            [
              -58.68804931599999,
              -34.529621124000016
            ],
            [
              -58.68858337400002,
              -34.52976226800001
            ],
            [
              -58.68907546999998,
              -34.52962493899997
            ],
            [
              -58.693202971999995,
              -34.526187897
            ],
            [
              -58.69367218000002,
              -34.52610397299998
            ],
            [
              -58.69414901699997,
              -34.526191711000024
            ],
            [
              -58.70127868700001,
              -34.532848358000024
            ],
            [
              -58.71994781500001,
              -34.519260406
            ],
            [
              -58.720973969,
              -34.5182724
            ],
            [
              -58.723857880000025,
              -34.51555252100002
            ],
            [
              -58.72564697299998,
              -34.513237000000004
            ],
            [
              -58.729316711000024,
              -34.50814819300001
            ],
            [
              -58.73528289799998,
              -34.506027222
            ],
            [
              -58.74311447100001,
              -34.502872466999975
            ],
            [
              -58.74808883700001,
              -34.50080490099998
            ],
            [
              -58.76081466699998,
              -34.495094299000016
            ],
            [
              -58.76647567700002,
              -34.491561890000014
            ],
            [
              -58.771369934000006,
              -34.488754271999994
            ],
            [
              -58.77335739099999,
              -34.486820221000016
            ],
            [
              -58.77740478499999,
              -34.482418059999986
            ],
            [
              -58.78336334199997,
              -34.47705841099997
            ],
            [
              -58.784122466999975,
              -34.476535797
            ],
            [
              -58.78473663300002,
              -34.476135253999985
            ],
            [
              -58.77827835099998,
              -34.47273635900001
            ],
            [
              -58.77858734099999,
              -34.472332000999984
            ],
            [
              -58.775131225999985,
              -34.47045135500002
            ],
            [
              -58.77119064300001,
              -34.46833801299999
            ],
            [
              -58.769432068000015,
              -34.465732574000015
            ],
            [
              -58.770133971999996,
              -34.46481323199998
            ],
            [
              -58.76473236099997,
              -34.467189788999974
            ],
            [
              -58.76441192599998,
              -34.46678161599999
            ],
            [
              -58.75622558600003,
              -34.46237182599998
            ],
            [
              -58.75245666500001,
              -34.467220306
            ],
            [
              -58.752044678000004,
              -34.46771240200002
            ],
            [
              -58.74502563499999,
              -34.463943481
            ],
            [
              -58.744270325,
              -34.463558197
            ],
            [
              -58.74454116800001,
              -34.46004486099997
            ],
            [
              -58.73735809300001,
              -34.45645523100001
            ],
            [
              -58.73190307599998,
              -34.45373916599999
            ],
            [
              -58.725059509000005,
              -34.450107574000015
            ],
            [
              -58.71453094499998,
              -34.444290161000026
            ]
          ]
        ],
        "type": "Polygon"
      }
    }
  ]
}